address_line_1,city,postcode,latitude,longitude
24 Tulse Hill,Trafford,M33 3QJ,53.415312,-2.323838
1 Stanley Cottages,Kingston upon Thames,KT1 2TW,51.401676,-0.299031
7 Ashburnham Road,Knowsley,L36 0UX,53.406642,-2.831767
17 Bordale Avenue,Rother,TN39 4HR,50.847934,0.457265
3 Curlew Walk,Mid Sussex,RH17 6EG,51.040337,-0.184974
"The Rectory, Westerfield Road",Wakefield,WF4 6AD,53.659867,-1.560271
50 Mendip Crescent,East Hampshire,GU10 5NH,51.187384,-0.887036
26 Timberley Drive,West Devon,PL19 9NS,50.579121,-4.098659
4 Oaklands,Calderdale,HX7 8LG,53.747203,-2.011396
3 Abbey House,Wigan,WN2 5AJ,53.520594,-2.600502
Tunstall Farmhouse,Manchester,M3 2LF,53.482328,-2.248957
8 Gresley Close,Rotherham,S66 2PX,53.428795,-1.280254
6 Catkin Close,Leeds,LS14 3BL,53.872124,-1.451462
1 Willington Avenue,North Lincolnshire,DN20 8NY,53.543853,-0.494799
26 Town House Road,West Devon,PL19 9EF,50.533077,-4.130044
60 North Side,Redditch,B98 0QF,52.301267,-1.882174
8 Cromwell Avenue,Chichester,PO18 0FN,50.862192,-0.686826
23 Castle Street,St. Helens,WN5 7LJ,53.499259,-2.703465
"4 Railway Cottage, Ripe Lane",South Gloucestershire,GL12 8JA,51.631735,-2.402831
2 Colne Bank,Rother,TN5 7BP,51.046474,0.411217
Park Place,Pembrokeshire,SA66 7LB,51.913721,-4.789509
128 Pershore Avenue,Fife,KY12 7HX,56.069987,-3.455472
6 Gala Drive,Barnet,EN4 8QF,51.644582,-0.150118
"Highways, Broad Lane",Waltham Forest,E11 4ZG,51.559984,0.007421
6 Eglos View,South Lanarkshire,ML11 9QU,55.66629,-3.916216
5 Stryd Llewelyn,North Devon,EX31 3XR,51.066349,-4.094007
4 Queens Grove,Cheltenham,GL50 4BE,51.905097,-2.081497
4 Viewlands,County Durham,DH3 3SX,54.859651,-1.572432
34 Goldring Avenue,Dudley,DY1 2DH,52.503523,-2.101896
"1 The Mews, 17 Brookley Road",Ashfield,NG16 6QU,53.073389,-1.298519
2 Oaklands Close,Fife,KY6 3AG,56.201518,-3.208623
151 Rose Hill Road,Uttlesford,CM6 3RX,51.905915,0.405602
203 Grangeway,Dorset,BH20 7EB,50.749987,-2.156106
49 Kingscroft,North Yorkshire,YO30 1BY,54.014081,-1.194775
"Hughfield, Burradon Road",Cumberland,CA28 9HX,54.534039,-3.582008
2 Lych Gate,Croydon,CR2 9JL,51.333156,-0.083211
67 School Lane,North Yorkshire,YO11 2RP,54.272368,-0.404484
15 The Waverleys,Stratford-on-Avon,CV35 9EU,52.190829,-1.618376
1 Garden Cottages,Fife,KY5 8PY,56.162981,-3.335992
8 Terrace Road,Pembrokeshire,SA68 0SG,51.721167,-4.77416
16 High Street,Leeds,LS25 2PH,53.800968,-1.364526
69 The Gardens,Tameside,M43 6LF,53.487177,-2.164517
Garregwen,Harrow,HA3 7EQ,51.600994,-0.3337
7 Sparrow Close,Wokingham,RG40 1BW,51.410403,-0.834767
77 Manvers Road,Bromley,BR1 4HL,51.41748,0.00553
6 Fieldside Road,Epsom and Ewell,KT17 4EX,51.33085,-0.256828
"Apartment 3 Block A, The Printworks, Sizer Street",Tendring,CO16 9BH,51.837346,1.12235
3 Nailers Row,Guildford,KT24 6AS,51.261679,-0.451465
20 Tiree Close,Medway,ME2 4SJ,51.396777,0.495312
Tynings,Dorset,DT10 2DP,50.877882,-2.364397
11 Springfield Lane,Croydon,SE25 6QE,51.399297,-0.090885
Lonsdale Steel Craft,Buckinghamshire,HP13 7LY,51.632415,-0.723263
"Sir Bedevere, Castle View",Manchester,M8 0DH,53.502651,-2.240241
"Flat 11, 1 Brosse Way",Guildford,GU23 7LD,51.280854,-0.51108
Sunset Cottage,Richmond upon Thames,KT1 4AG,51.411459,-0.31207
1 Locke Row,Cherwell,HP18 9UY,51.832923,-1.086202
6 Shellard Road,Cherwell,OX26 1RT,51.904185,-1.195615
10 Lewis Close,Preston,PR1 6HR,53.775133,-2.681305
Unit 1 Mersey Road Industrial Estate,Epsom and Ewell,KT19 8DL,51.333958,-0.268047
"Bunratty, The Mall","Bristol, City of",BS7 0EW,51.497971,-2.571233
11 Yates Street,Bath and North East Somerset,BA1 3EZ,51.384195,-2.373133
"Manderley, Norton Terrace",Causeway Coast and Glens,BT54 6WQ,55.200975,-6.269165
"Bryn Awelon, 25 Mount Street",Havant,PO9 5JJ,50.873623,-0.97322
Unit 5 Enterprise Park,Sheffield,S35 4LQ,53.474172,-1.488756
154 Church Road,Uttlesford,CM22 6HN,51.919414,0.214516
Accar,North Northamptonshire,NN15 7DE,52.396232,-0.712409
3 Tanycoed,Plymouth,PL1 2NX,50.365413,-4.134297
17 Acton Close,Manchester,M20 2JL,53.422843,-2.245015
"Garn Villa, Penygarn","Bournemouth, Christchurch and Poole",BH1 1AF,50.72326,-1.8713
"Viewpoint House, 240 London Road",Cheltenham,GL53 0JA,51.88716,-2.08145
1 Launceston Road,Babergh,IP29 4QU,52.162264,0.733618
"Meadow Cottage, Watery Lane",Chesterfield,S43 3YX,53.27105,-1.347787
11 Argyll Close,Luton,LU3 3UH,51.914594,-0.444454
3 The Promenade,Somerset,TA5 1EU,51.147923,-3.164341
38 Buckingham Road,Winchester,SO32 2RB,50.94002,-1.188496
7 Gordon Road,Plymouth,PL1 3GR,50.372644,-4.158699
"The Limes, Shepherds Walk",Camden,NW1 0RX,51.53591,-0.134327
"Willow Court Nursing Extension, Croft Lane",Perth and Kinross,PH1 3SS,56.405506,-3.57513
11 St Stephens Drive,Surrey Heath,GU24 8HT,51.348874,-0.567449
"Flat 10, Henry House, 111 Queens Road",Walsall,WS1 4AG,52.568728,-1.994085
7 Porthcressa Road,Salford,M7 4NY,53.510508,-2.249532
20 Rochford Way,Teignbridge,EX7 9RU,50.574655,-3.474108
"Adele House, Springwood Drive",Enfield,N14 6DP,51.628159,-0.128392
14 Greyhound Lane,East Hertfordshire,SG9 9AF,51.950149,-0.021649
"Pixton Lodge, Hartfield Road",Sandwell,B66 3AJ,52.494675,-1.970056
Little Croft,Sunderland,DH5 0AW,54.816814,-1.452095
"Flat 68, Great Arthur House, Golden Lane Estate",Ashford,TN27 8DW,51.089079,0.639961
9 Scotland Close,Ashford,TN27 0ES,51.187671,0.785835
10 Wellands Road,Newcastle upon Tyne,NE3 4RG,55.004576,-1.636822
53 Sun Street,Waltham Forest,E17 9HD,51.582974,-0.005524
1 Manor Farm Cottages,Fermanagh and Omagh,BT78 1TJ,54.559293,-7.364196
69 Longfield Road,Barnet,N3 1PN,51.611725,-0.193863
6 Myrtle Road,Cornwall,TR19 6HT,50.08859,-5.644529
"Larch Glen, Sandy Lane",Westmorland and Furness,LA14 3SJ,54.121896,-3.25286
"Apartment 1508, The Heron, 5 Moor Lane",Basingstoke and Deane,RG28 7SY,51.234525,-1.346456
58 Mell Road,Oldham,OL4 1BH,53.537981,-2.09849
4 Fairway,Warwick,CV34 6GS,52.268578,-1.537508
1 Sunset View,Norwich,NR5 8YU,52.63985,1.240836
6 Kerry Close,Winchester,SO23 5AS,51.067557,-1.297333
41 Bailey Crescent,Oxford,OX2 8AH,51.784144,-1.281691
"Flat 5, 42 Park Square North",East Lindsey,LN11 0YA,53.380618,-0.006314
54 Burbage Road,Oxford,OX3 9FE,51.764285,-1.204275
Sunnyside,Swansea,SA2 9EJ,51.623238,-3.990354
"Woodhay, Portsmouth Road",Rhondda Cynon Taf,CF37 5QA,51.592521,-3.320527
1 South Street,County Durham,DH8 5SR,54.857265,-1.844183
35C Ramsons Avenue,Swindon,SN3 5BA,51.565613,-1.732059
5 Aldershot Walk,Derry City and Strabane,BT82 9TP,54.804811,-7.476852
Old Dairy Cottage,East Riding of Yorkshire,YO16 7BE,54.095268,-0.198819
196 Oldbury Road,Three Rivers,WD3 3QN,51.651324,-0.438463
Whitecross Farmhouse,Fermanagh and Omagh,BT93 8AJ,54.526818,-7.79592
"Teal Hatch, Friars Road",Lewisham,SE14 5SW,51.466754,-0.048475
"Yew Tree Cottage, Park Lane",Causeway Coast and Glens,BT52 2FH,55.138207,-6.656589
36 Cotmer Road,Havering,RM3 8YA,51.603388,0.211292
"Cranford Cottage, High Street",Caerphilly,CF82 7GL,51.654782,-3.248757
8 Priory Close,North Lanarkshire,ML1 4XX,55.818413,-3.977911
13 Evesham Road,Thurrock,RM16 2LW,51.49769,0.341494
2 Bullion Lane,East Cambridgeshire,CB6 2WT,52.432357,0.236588
44 Molineux Street,Kirklees,BD19 3JD,53.72475,-1.713025
The Elms,Westmorland and Furness,LA12 0RP,54.186865,-3.123137
38 Davison Avenue,Sunderland,SR6 8HG,54.931563,-1.379203
1 Dadson Court,Newark and Sherwood,NG22 8AD,53.08437,-0.987172
"Goodfellow Farm, Church Lane",Westminster,W1K 4NA,51.511889,-0.14776
67 Lisle Grove,Malvern Hills,WR15 8QJ,52.266621,-2.505892
33 Clifford Street,Winchester,SO22 5AN,51.066386,-1.329845
"2 Lavender Court, Ferringham Lane",Stockport,SK7 6BS,53.367944,-2.110225
5 Acacia Way,Eastleigh,SO50 7NG,50.962429,-1.292296
"Flat 1, 2 Saltoun Road",Leeds,LS16 9AX,53.885224,-1.622991
"Glanwenny Lodge, Ewenny Road",Forest of Dean,GL16 7AY,51.811951,-2.623717
"Pyecombe Lodge, Church Lane",Birmingham,B5 4AE,52.477491,-1.902233
46 Kerria Way,Worthing,BN14 7JS,50.82419,-0.392387
"The Old Chapel, 43 Westfield Road",Northumberland,NE24 4AH,55.109835,-1.530265
9 North Rise,East Suffolk,IP16 4EP,52.208123,1.576221
1 Anstiebury Close,Bury,M26 2UT,53.56786,-2.317648
"Flat 16, Stag Heights, 2 Stag Lane",Boston,PE20 3AE,52.914639,-0.147403
32 New Street,Woking,GU21 3DX,51.31672,-0.581739
1 Warren Place,Walsall,B43 7EX,52.552218,-1.912013
"Flat 192, Glebe Court, London Road",Torbay,TQ4 5PL,50.429333,-3.579541
1 New Ealing Broadway,Leeds,LS14 6GD,53.816476,-1.462715
2 Bandleyside Cottage,Wirral,CH60 1UQ,53.332835,-3.075613
49 Manor Way,County Durham,DH7 7LJ,54.775966,-1.638152
3 Bryn Draw Terrace,Salford,M28 3BU,53.524553,-2.399275
20 Crane Street,Dumfries and Galloway,DG7 1SR,54.902889,-3.932194
10 Newport Road,St Albans,AL4 8FG,51.815479,-0.291634
97 Nottingham Road,Aberdeen City,AB22 8FS,57.195875,-2.129455
5 Monmouth Road,Gloucester,GL3 3QQ,51.855075,-2.181091
11 Briarbank Avenue,North West Leicestershire,LE67 6LL,52.686863,-1.396146
"North Oaks, Frith Lane",Cheltenham,GL53 8DX,51.877916,-2.053237
1 Helford Walk,Vale of White Horse,OX13 5JF,51.712549,-1.35822
"Kirkstone Pass, Downs Stables, Manor Road",Sefton,L30 0QP,53.491009,-2.980163
25 Victoria Street,Southend-on-Sea,SS2 5AS,51.542214,0.714918
"Fallowfields, Shaftesbury Road",Waverley,GU9 9BT,51.235928,-0.784364
35 Harcourt Road,Bradford,BD20 0FL,53.906026,-1.935613
65 Cavendish Place,Blackpool,FY4 2LB,53.785423,-3.041761
276 Albert Royds Street,East Renfrewshire,G46 9SG,55.797701,-4.30193
17 Mason Close,Moray,IV36 1HU,57.606347,-3.629227
7 Windsor Court,Cornwall,EX23 8JL,50.830108,-4.544787
8 Adlington Avenue,Rotherham,S60 1DX,53.417642,-1.383826
26 Baxter Court,Argyll and Bute,PA28 6LN,55.419317,-5.609215
3 Rose Avenue,Kensington and Chelsea,SW5 9EH,51.491749,-0.198216
4 Church Street,Tameside,SK14 1NA,53.449855,-2.077823
3 Copperhouse View,Horsham,RH14 9SL,51.016455,-0.448838
5 Elmtree Grove,Buckinghamshire,MK18 1XJ,51.986664,-0.982219
"Unit 1, Steeple Court, Cambridge Street",Northumberland,NE22 7EZ,55.140853,-1.561166
24 James Lloyd Drive,Stockton-on-Tees,TS18 1PT,54.567904,-1.315324
762 Beechley Drive,Cheltenham,GL51 8EJ,51.902904,-2.092568
79 Beach Street,Warwick,B94 6LY,52.335258,-1.724477
"Unit C, Meadow View Business Park, Winchester Road",Luton,LU1 5FF,51.876219,-0.430428
3 Worsten Avenue,Hillingdon,UB7 7EL,51.500862,-0.48254
5 Caewern,Harborough,LE16 9PB,52.472513,-0.920478
85 Bury Road,West Lothian,EH54 6RH,55.893605,-3.530993
15 Parkside,Monmouthshire,NP7 9DX,51.810039,-3.030421
167 Pavilion Road,Calderdale,HX2 7RA,53.723985,-1.915761
2 Onedin Close,Sevenoaks,TN14 5FH,51.293468,0.172315
15 Delaware Road,Westmorland and Furness,LA9 4RH,54.332771,-2.74798
"Flat 23, The Waters Edge Apartments, Eastwood Road",Buckinghamshire,LU7 0RW,51.846047,-0.668456
12 Birch Drive,Stoke-on-Trent,ST2 9NE,53.015713,-2.152176
3 South Sea Road,Southwark,SE26 6LW,51.437372,-0.06459
Ffridd Fach,West Dunbartonshire,G82 1RQ,55.942514,-4.555595
"The Orchard, Lambfair Green",East Lothian,EH33 2AR,55.941681,-2.944286
1 Ambleside Close,Braintree,CM7 4SA,51.9472,0.434937
5 Castle Mews,Tendring,CO15 3LQ,51.796975,1.14078
81 Fernhill Road,Fife,KY2 6DA,56.126741,-3.180037
5 Island Avenue,City of Edinburgh,EH12 9AD,55.933038,-3.288544
"Duckworth Cottage, Station Road",East Riding of Yorkshire,HU17 5LG,53.89101,-0.320285
26 Kirkland Close,Milton Keynes,MK12 5SH,52.057877,-0.82844
91 Windingbrook Lane,Moray,IV36 2AE,57.604301,-3.695544
"1 Attfield Cottages, Littlefield Common",County Durham,DH6 5DH,54.740629,-1.527788
11 Bush Close,North Lincolnshire,DN17 2QZ,53.550127,-0.657334
"2 Wintersell Farm Cottage, Dwelly Lane",Isle of Wight,PO35 5UA,50.68807,-1.086322
21 Merlin Close,Bradford,BD7 2HU,53.786273,-1.786293
"Kestrel Grove Nursing Home, Peveril Court",Dorset,DT3 5FF,50.64789,-2.470842
28 Towneley Avenue,Basingstoke and Deane,RG21 8UL,51.260738,-1.09405
4 Parklands Mews,Sunderland,NE37 3BX,54.914666,-1.503977
266 Desborough Avenue,Westminster,SW7 1QG,51.501322,-0.174109
"Quarry Lodge, Lord Street",Bromsgrove,B60 3JN,52.325394,-2.068536
23 Rainsford Crescent,Flintshire,CH7 6DD,53.20768,-3.123249
2 Plantation Park,Wolverhampton,WV2 4BY,52.579068,-2.129039
"Flat 4, 3 Bethwin Road",Milton Keynes,MK10 7FS,52.053899,-0.68894
"Woodland Cottage, Green Bank Lane",Calderdale,HX1 3EL,53.713268,-1.874648
20 Wood Road,Boston,PE21 7GD,52.96284,-0.03046
